IRIDIUM 7 [-]           
1 24793U 97020B   24107.17720841  .00000744  00000+0  25374-3 0  9995
2 24793  86.4006 355.8029 0002426  87.1652 272.9822 14.35155232410857
IRIDIUM 5 [-]           
1 24795U 97020D   24106.85388801  .00008667  00000+0  84433-3 0  9990
2 24795  86.3882 279.4696 0122245 223.0924 136.0683 14.86836744421808
IRIDIUM 4 [-]           
1 24796U 97020E   24107.15425897  .00000684  00000+0  22845-3 0  9992
2 24796  86.3998 352.9757 0002225  90.0180 270.1272 14.36076058411197
IRIDIUM 914 [-]         
1 24836U 97030A   24106.23896096  .00000730  00000+0  22619-3 0  9990
2 24836  86.3986   3.2113 0002444 132.1421 227.9986 14.39920514545525
IRIDIUM 16 [-]          
1 24841U 97030F   24107.16658047  .00001121  00000+0  36587-3 0  9995
2 24841  86.4087  24.6230 0003777  57.4150 302.7412 14.37814194405883
IRIDIUM 911 [-]         
1 24842U 97030G   24106.84071991  .00001180  00000+0  32240-3 0  9994
2 24842  86.4512  23.9395 0016611  82.7221 277.5869 14.46421848413280
IRIDIUM 17 [-]          
1 24870U 97034B   24106.88766779  .00001026  00000+0  34047-3 0  9994
2 24870  86.3967  54.3465 0002207  43.3480 316.7891 14.36898244402204
IRIDIUM 920 [-]         
1 24871U 97034C   24107.19597316  .00001140  00000+0  35096-3 0  9991
2 24871  86.4017  34.4424 0013471  55.9960 304.2517 14.40625235405341
